[
    {
        "Altitude(m)": 703623.4322198377,
        "Argument of Periapsis(deg)": 0.011390121186627068,
        "Eccentricity": 0.0,
        "Inclination(deg)": 45.0,
        "Latitude(deg)": 25.610866735668118,
        "Longitude(deg)": -64.24909977943324,
        "Mean Anomaly(deg)": -217.55768335251912,
        "RAAN(deg)": 244.98924805854182,
        "Satellite Name": "Constellation 1 1086",
        "Satellite Number": 1086,
        "Semi-Major Axis(m)": 7083131.272910544,
        "Time(s)": 190
    },
    {
        "Altitude(m)": 703618.4998260145,
        "Argument of Periapsis(deg)": 0.011450069192872472,
        "Eccentricity": 0.0,
        "Inclination(deg)": 45.0,
        "Latitude(deg)": 25.57292363504387,
        "Longitude(deg)": -64.20056595603735,
        "Mean Anomaly(deg)": -217.49698221226927,
        "RAAN(deg)": 244.98919146937624,
        "Satellite Name": "Constellation 1 1086",
        "Satellite Number": 1086,
        "Semi-Major Axis(m)": 7083131.272910544,
        "Time(s)": 191
    },
    {
        "Altitude(m)": 703613.5763992483,
        "Argument of Periapsis(deg)": 0.01151001719911788,
        "Eccentricity": 0.0,
        "Inclination(deg)": 45.0,
        "Latitude(deg)": 25.534961426287442,
        "Longitude(deg)": -64.1520653023492,
        "Mean Anomaly(deg)": -217.4362810720194,
        "RAAN(deg)": 244.98913488021068,
        "Satellite Name": "Constellation 1 1086",
        "Satellite Number": 1086,
        "Semi-Major Axis(m)": 7083131.272910544,
        "Time(s)": 192
    },
    {
        "Altitude(m)": 703608.6619768755,
        "Argument of Periapsis(deg)": 0.011569965205363285,
        "Eccentricity": 0.0,
        "Inclination(deg)": 45.0,
        "Latitude(deg)": 25.49698015341003,
        "Longitude(deg)": -64.1035979258013,
        "Mean Anomaly(deg)": -217.3755799317695,
        "RAAN(deg)": 244.98907829104513,
        "Satellite Name": "Constellation 1 1086",
        "Satellite Number": 1086,
        "Semi-Major Axis(m)": 7083131.272910544,
        "Time(s)": 193
    },
    {
        "Altitude(m)": 703603.7565962072,
        "Argument of Periapsis(deg)": 0.01162991321160869,
        "Eccentricity": 0.0,
        "Inclination(deg)": 45.0,
        "Latitude(deg)": 25.458979860358877,
        "Longitude(deg)": -64.05516342953669,
        "Mean Anomaly(deg)": -217.31487879151956,
        "RAAN(deg)": 244.98902170187955,
        "Satellite Name": "Constellation 1 1086",
        "Satellite Number": 1086,
        "Semi-Major Axis(m)": 7083131.272910544,
        "Time(s)": 194
    },
    {
        "Altitude(m)": 703598.8602945283,
        "Argument of Periapsis(deg)": 0.011689861217854095,
        "Eccentricity": 0.0,
        "Inclination(deg)": 45.0,
        "Latitude(deg)": 25.42096059101655,
        "Longitude(deg)": -64.00676192099095,
        "Mean Anomaly(deg)": -217.2541776512697,
        "RAAN(deg)": 244.98896511271397,
        "Satellite Name": "Constellation 1 1086",
        "Satellite Number": 1086,
        "Semi-Major Axis(m)": 7083131.272910544,
        "Time(s)": 195
    },
    {
        "Altitude(m)": 703593.9731090824,
        "Argument of Periapsis(deg)": 0.0117498092240995,
        "Eccentricity": 0.0,
        "Inclination(deg)": 45.0,
        "Latitude(deg)": 25.382922389201735,
        "Longitude(deg)": -63.95839333950426,
        "Mean Anomaly(deg)": -217.19347651101978,
        "RAAN(deg)": 244.9889085235484,
        "Satellite Name": "Constellation 1 1086",
        "Satellite Number": 1086,
        "Semi-Major Axis(m)": 7083131.272910544,
        "Time(s)": 196
    },
    {
        "Altitude(m)": 703589.0950771035,
        "Argument of Periapsis(deg)": 0.011809757230344905,
        "Eccentricity": 0.0,
        "Inclination(deg)": 45.0,
        "Latitude(deg)": 25.34486529866911,
        "Longitude(deg)": -63.91005762441955,
        "Mean Anomaly(deg)": -217.13277537076988,
        "RAAN(deg)": 244.98885193438284,
        "Satellite Name": "Constellation 1 1086",
        "Satellite Number": 1086,
        "Semi-Major Axis(m)": 7083131.272910544,
        "Time(s)": 197
    },
    {
        "Altitude(m)": 703584.2262357777,
        "Argument of Periapsis(deg)": 0.011869705236590313,
        "Eccentricity": 0.0,
        "Inclination(deg)": 45.0,
        "Latitude(deg)": 25.306789363109402,
        "Longitude(deg)": -63.8617547150821,
        "Mean Anomaly(deg)": -217.07207423052,
        "RAAN(deg)": 244.98879534521726,
        "Satellite Name": "Constellation 1 1086",
        "Satellite Number": 1086,
        "Semi-Major Axis(m)": 7083131.272910544,
        "Time(s)": 198
    },
    {
        "Altitude(m)": 703579.3666222772,
        "Argument of Periapsis(deg)": 0.011929653242835719,
        "Eccentricity": 0.0,
        "Inclination(deg)": 45.0,
        "Latitude(deg)": 25.26869462614953,
        "Longitude(deg)": -63.813484550840236,
        "Mean Anomaly(deg)": -217.0113730902701,
        "RAAN(deg)": 244.9887387560517,
        "Satellite Name": "Constellation 1 1086",
        "Satellite Number": 1086,
        "Semi-Major Axis(m)": 7083131.272910544,
        "Time(s)": 199
    }
]